CCSDS_OMM_VERS = 2.0
CREATION_DATE  = 
ORIGINATOR     = 

OBJECT_NAME    = STARLINK-35777
OBJECT_ID      = 2025-288S
CENTER_NAME    = EARTH
REF_FRAME      = TEME
TIME_SYSTEM    = UTC
MEAN_ELEMENT_THEORY = SGP/SGP4

EPOCH          = 2025-12-16T14:00:03.000384
MEAN_MOTION    = 15.91970964
ECCENTRICITY   = .00016506
INCLINATION    = 43.0016
RA_OF_ASC_NODE = 143.7250
ARG_OF_PERICENTER = 270.8357
MEAN_ANOMALY   = 30.8122

EPHEMERIS_TYPE = 0
CLASSIFICATION_TYPE = U
NORAD_CAT_ID   = 66975
ELEMENT_SET_NO = 999
REV_AT_EPOCH   = 245
BSTAR          = -.4362842E-2
MEAN_MOTION_DOT = -.1493789E-1
MEAN_MOTION_DDOT = .62956716E-3

CCSDS_OMM_VERS = 2.0
CREATION_DATE  = 
ORIGINATOR     = 

OBJECT_NAME    = STARLINK-35772
OBJECT_ID      = 2025-288T
CENTER_NAME    = EARTH
REF_FRAME      = TEME
TIME_SYSTEM    = UTC
MEAN_ELEMENT_THEORY = SGP/SGP4

EPOCH          = 2025-12-16T14:00:03.000384
MEAN_MOTION    = 15.86872966
ECCENTRICITY   = .00014036
INCLINATION    = 43.0015
RA_OF_ASC_NODE = 143.7745
ARG_OF_PERICENTER = 266.2961
MEAN_ANOMALY   = 15.7303

EPHEMERIS_TYPE = 0
CLASSIFICATION_TYPE = U
NORAD_CAT_ID   = 66976
ELEMENT_SET_NO = 999
REV_AT_EPOCH   = 245
BSTAR          = -.99939677E-2
MEAN_MOTION_DOT = -.2260314E-1
MEAN_MOTION_DDOT = 0

CCSDS_OMM_VERS = 2.0
CREATION_DATE  = 
ORIGINATOR     = 

OBJECT_NAME    = STARLINK-35770
OBJECT_ID      = 2025-288U
CENTER_NAME    = EARTH
REF_FRAME      = TEME
TIME_SYSTEM    = UTC
MEAN_ELEMENT_THEORY = SGP/SGP4

EPOCH          = 2025-12-16T14:00:03.000384
MEAN_MOTION    = 15.92020579
ECCENTRICITY   = .00016213
INCLINATION    = 43.0015
RA_OF_ASC_NODE = 143.7190
ARG_OF_PERICENTER = 268.7910
MEAN_ANOMALY   = 35.3505

EPHEMERIS_TYPE = 0
CLASSIFICATION_TYPE = U
NORAD_CAT_ID   = 66977
ELEMENT_SET_NO = 999
REV_AT_EPOCH   = 245
BSTAR          = -.43514458E-2
MEAN_MOTION_DOT = -.1493733E-1
MEAN_MOTION_DDOT = .62982603E-3

CCSDS_OMM_VERS = 2.0
CREATION_DATE  = 
ORIGINATOR     = 

OBJECT_NAME    = STARLINK-35787
OBJECT_ID      = 2025-288V
CENTER_NAME    = EARTH
REF_FRAME      = TEME
TIME_SYSTEM    = UTC
MEAN_ELEMENT_THEORY = SGP/SGP4

EPOCH          = 2025-12-16T14:00:03.000384
MEAN_MOTION    = 15.92184934
ECCENTRICITY   = .00017103
INCLINATION    = 43.0017
RA_OF_ASC_NODE = 143.7048
ARG_OF_PERICENTER = 269.1544
MEAN_ANOMALY   = 40.5806

EPHEMERIS_TYPE = 0
CLASSIFICATION_TYPE = U
NORAD_CAT_ID   = 66978
ELEMENT_SET_NO = 999
REV_AT_EPOCH   = 245
BSTAR          = -.43821791E-2
MEAN_MOTION_DOT = -.1516958E-1
MEAN_MOTION_DDOT = .64895433E-3

CCSDS_OMM_VERS = 2.0
CREATION_DATE  = 
ORIGINATOR     = 

OBJECT_NAME    = STARLINK-36107
OBJECT_ID      = 2025-288W
CENTER_NAME    = EARTH
REF_FRAME      = TEME
TIME_SYSTEM    = UTC
MEAN_ELEMENT_THEORY = SGP/SGP4

EPOCH          = 2025-12-16T17:12:42.185952
MEAN_MOTION    = 15.93430839
ECCENTRICITY   = .00160462
INCLINATION    = 42.9997
RA_OF_ASC_NODE = 142.8664
ARG_OF_PERICENTER = 244.4268
MEAN_ANOMALY   = 115.4950

EPHEMERIS_TYPE = 0
CLASSIFICATION_TYPE = U
NORAD_CAT_ID   = 66979
ELEMENT_SET_NO = 999
REV_AT_EPOCH   = 247
BSTAR          = .13009519E-2
MEAN_MOTION_DOT = .486365E-2
MEAN_MOTION_DDOT = .10087688E-3

CCSDS_OMM_VERS = 2.0
CREATION_DATE  = 
ORIGINATOR     = 

OBJECT_NAME    = STARLINK-36086
OBJECT_ID      = 2025-288X
CENTER_NAME    = EARTH
REF_FRAME      = TEME
TIME_SYSTEM    = UTC
MEAN_ELEMENT_THEORY = SGP/SGP4

EPOCH          = 2025-12-16T14:00:03.000384
MEAN_MOTION    = 15.92297904
ECCENTRICITY   = .00016182
INCLINATION    = 43.0016
RA_OF_ASC_NODE = 143.6934
ARG_OF_PERICENTER = 268.1791
MEAN_ANOMALY   = 45.9943

EPHEMERIS_TYPE = 0
CLASSIFICATION_TYPE = U
NORAD_CAT_ID   = 66980
ELEMENT_SET_NO = 999
REV_AT_EPOCH   = 245
BSTAR          = -.43994033E-2
MEAN_MOTION_DOT = -.1531722E-1
MEAN_MOTION_DDOT = .66132736E-3

CCSDS_OMM_VERS = 2.0
CREATION_DATE  = 
ORIGINATOR     = 

OBJECT_NAME    = STARLINK-36142
OBJECT_ID      = 2025-288Y
CENTER_NAME    = EARTH
REF_FRAME      = TEME
TIME_SYSTEM    = UTC
MEAN_ELEMENT_THEORY = SGP/SGP4

EPOCH          = 2025-12-16T14:00:03.000384
MEAN_MOTION    = 15.92353214
ECCENTRICITY   = .00017323
INCLINATION    = 43.0017
RA_OF_ASC_NODE = 143.6886
ARG_OF_PERICENTER = 269.5465
MEAN_ANOMALY   = 46.4787

EPHEMERIS_TYPE = 0
CLASSIFICATION_TYPE = U
NORAD_CAT_ID   = 66981
ELEMENT_SET_NO = 999
REV_AT_EPOCH   = 245
BSTAR          = -.44051019E-2
MEAN_MOTION_DOT = -.1538093E-1
MEAN_MOTION_DDOT = .66674822E-3

CCSDS_OMM_VERS = 2.0
CREATION_DATE  = 
ORIGINATOR     = 

OBJECT_NAME    = STARLINK-36113
OBJECT_ID      = 2025-288Z
CENTER_NAME    = EARTH
REF_FRAME      = TEME
TIME_SYSTEM    = UTC
MEAN_ELEMENT_THEORY = SGP/SGP4

EPOCH          = 2025-12-16T14:00:03.000384
MEAN_MOTION    = 15.92425167
ECCENTRICITY   = .00016717
INCLINATION    = 43.0015
RA_OF_ASC_NODE = 143.6838
ARG_OF_PERICENTER = 268.4149
MEAN_ANOMALY   = 49.5209

EPHEMERIS_TYPE = 0
CLASSIFICATION_TYPE = U
NORAD_CAT_ID   = 66982
ELEMENT_SET_NO = 999
REV_AT_EPOCH   = 245
BSTAR          = -.44569293E-2
MEAN_MOTION_DOT = -.1561743E-1
MEAN_MOTION_DDOT = .68619318E-3

CCSDS_OMM_VERS = 2.0
CREATION_DATE  = 
ORIGINATOR     = 

OBJECT_NAME    = STARLINK-36145
OBJECT_ID      = 2025-288AA
CENTER_NAME    = EARTH
REF_FRAME      = TEME
TIME_SYSTEM    = UTC
MEAN_ELEMENT_THEORY = SGP/SGP4

EPOCH          = 2025-12-16T14:00:03.000384
MEAN_MOTION    = 15.92537439
ECCENTRICITY   = .00016987
INCLINATION    = 43.0015
RA_OF_ASC_NODE = 143.6739
ARG_OF_PERICENTER = 269.0140
MEAN_ANOMALY   = 52.8562

EPHEMERIS_TYPE = 0
CLASSIFICATION_TYPE = U
NORAD_CAT_ID   = 66983
ELEMENT_SET_NO = 999
REV_AT_EPOCH   = 245
BSTAR          = -.4474027E-2
MEAN_MOTION_DOT = -.157679E-1
MEAN_MOTION_DDOT = .69916464E-3

CCSDS_OMM_VERS = 2.0
CREATION_DATE  = 
ORIGINATOR     = 

OBJECT_NAME    = STARLINK-35591
OBJECT_ID      = 2025-288AB
CENTER_NAME    = EARTH
REF_FRAME      = TEME
TIME_SYSTEM    = UTC
MEAN_ELEMENT_THEORY = SGP/SGP4

EPOCH          = 2025-12-16T14:00:03.000384
MEAN_MOTION    = 15.92465304
ECCENTRICITY   = .00017325
INCLINATION    = 43.0015
RA_OF_ASC_NODE = 143.6783
ARG_OF_PERICENTER = 266.0407
MEAN_ANOMALY   = 53.8937

EPHEMERIS_TYPE = 0
CLASSIFICATION_TYPE = U
NORAD_CAT_ID   = 66984
ELEMENT_SET_NO = 999
REV_AT_EPOCH   = 245
BSTAR          = -.44232003E-2
MEAN_MOTION_DOT = -.1553302E-1
MEAN_MOTION_DDOT = .67965655E-3

CCSDS_OMM_VERS = 2.0
CREATION_DATE  = 
ORIGINATOR     = 

OBJECT_NAME    = STARLINK-36103
OBJECT_ID      = 2025-288AC
CENTER_NAME    = EARTH
REF_FRAME      = TEME
TIME_SYSTEM    = UTC
MEAN_ELEMENT_THEORY = SGP/SGP4

EPOCH          = 2025-12-16T14:00:03.000384
MEAN_MOTION    = 15.92580006
ECCENTRICITY   = .00016733
INCLINATION    = 43.0015
RA_OF_ASC_NODE = 143.6685
ARG_OF_PERICENTER = 271.4634
MEAN_ANOMALY   = 52.5224

EPHEMERIS_TYPE = 0
CLASSIFICATION_TYPE = U
NORAD_CAT_ID   = 66985
ELEMENT_SET_NO = 999
REV_AT_EPOCH   = 245
BSTAR          = -.44405441E-2
MEAN_MOTION_DOT = -.1568579E-1
MEAN_MOTION_DDOT = .69277013E-3

CCSDS_OMM_VERS = 2.0
CREATION_DATE  = 
ORIGINATOR     = 

OBJECT_NAME    = STARLINK-36135
OBJECT_ID      = 2025-288AD
CENTER_NAME    = EARTH
REF_FRAME      = TEME
TIME_SYSTEM    = UTC
MEAN_ELEMENT_THEORY = SGP/SGP4

EPOCH          = 2025-12-16T14:00:03.000384
MEAN_MOTION    = 15.92642387
ECCENTRICITY   = .00016814
INCLINATION    = 43.0011
RA_OF_ASC_NODE = 143.6626
ARG_OF_PERICENTER = 267.8372
MEAN_ANOMALY   = 58.2520

EPHEMERIS_TYPE = 0
CLASSIFICATION_TYPE = U
NORAD_CAT_ID   = 66986
ELEMENT_SET_NO = 999
REV_AT_EPOCH   = 245
BSTAR          = -.44628968E-2
MEAN_MOTION_DOT = -.1581478E-1
MEAN_MOTION_DDOT = .70371327E-3

CCSDS_OMM_VERS = 2.0
CREATION_DATE  = 
ORIGINATOR     = 

OBJECT_NAME    = STARLINK-36147
OBJECT_ID      = 2025-288AE
CENTER_NAME    = EARTH
REF_FRAME      = TEME
TIME_SYSTEM    = UTC
MEAN_ELEMENT_THEORY = SGP/SGP4

EPOCH          = 2025-12-16T14:00:03.000384
MEAN_MOTION    = 15.92698379
ECCENTRICITY   = .00016681
INCLINATION    = 43.0016
RA_OF_ASC_NODE = 143.6583
ARG_OF_PERICENTER = 265.3485
MEAN_ANOMALY   = 62.6556

EPHEMERIS_TYPE = 0
CLASSIFICATION_TYPE = U
NORAD_CAT_ID   = 66987
ELEMENT_SET_NO = 999
REV_AT_EPOCH   = 245
BSTAR          = -.4457972E-2
MEAN_MOTION_DOT = -.1584339E-1
MEAN_MOTION_DDOT = .70644415E-3

CCSDS_OMM_VERS = 2.0
CREATION_DATE  = 
ORIGINATOR     = 

OBJECT_NAME    = YAOGAN-47
OBJECT_ID      = 2025-289A
CENTER_NAME    = EARTH
REF_FRAME      = TEME
TIME_SYSTEM    = UTC
MEAN_ELEMENT_THEORY = SGP/SGP4

EPOCH          = 2025-12-15T02:32:19.481856
MEAN_MOTION    = 15.23184629
ECCENTRICITY   = .0000787
INCLINATION    = 97.5271
RA_OF_ASC_NODE = 54.2297
ARG_OF_PERICENTER = 67.3408
MEAN_ANOMALY   = 292.7912

EPHEMERIS_TYPE = 0
CLASSIFICATION_TYPE = U
NORAD_CAT_ID   = 66988
ELEMENT_SET_NO = 999
REV_AT_EPOCH   = 90
BSTAR          = .11849353E-3
MEAN_MOTION_DOT = .2729E-4
MEAN_MOTION_DDOT = 0

CCSDS_OMM_VERS = 2.0
CREATION_DATE  = 
ORIGINATOR     = 

OBJECT_NAME    = CZ-4B R/B
OBJECT_ID      = 2025-289B
CENTER_NAME    = EARTH
REF_FRAME      = TEME
TIME_SYSTEM    = UTC
MEAN_ELEMENT_THEORY = SGP/SGP4

EPOCH          = 2025-12-17T15:00:09.845280
MEAN_MOTION    = 15.68413113
ECCENTRICITY   = .0145326
INCLINATION    = 97.5268
RA_OF_ASC_NODE = 57.3237
ARG_OF_PERICENTER = 344.4365
MEAN_ANOMALY   = 15.2450

EPHEMERIS_TYPE = 0
CLASSIFICATION_TYPE = U
NORAD_CAT_ID   = 66989
ELEMENT_SET_NO = 999
REV_AT_EPOCH   = 133
BSTAR          = .55112335E-3
MEAN_MOTION_DOT = .113241E-2
MEAN_MOTION_DDOT = .5896474E-5

